STARLINK-5709           
1 55621U 23020BE  23056.68872181  .00043411  00000+0  33233-3 0  9992
2 55621  42.9997 274.9781 0001983 286.5208  73.5442 15.71385430  2139
STARLINK-5702           
1 55622U 23020BF  23056.62474032  .00068937  00000+0  52407-3 0  9994
2 55622  42.9998 275.3588 0002017 279.9893  80.0747 15.71387772  2127
STARLINK-5698           
1 55623U 23020BG  23056.56096459  .00031351  00000+0  24130-3 0  9993
2 55623  43.0003 275.7396 0002896 241.0763 118.9815 15.71384343  2116
FALCON 9 DEB            
1 55624U 23020BH  23056.65520498  .00291504  39980-4  83372-3 0  9994
2 55624  43.0095 273.8143 0022532  38.9485 321.3009 15.91990005  2148
FALCON 9 DEB            
1 55625U 23020BJ  23055.64722120  .00319257  46543-4  90604-3 0  9994
2 55625  43.0061 280.0212 0019658  30.3575 329.8435 15.92234733  1987
FALCON 9 DEB            
1 55626U 23020BK  23057.01644072  .00440659  85055-4  10889-2 0  9995
2 55626  43.0011 271.3397 0019815  25.6840 334.5017 15.94781791  2205
FALCON 9 DEB            
1 55627U 23020BL  23057.01563139  .00398134  70219-4  10049-2 0  9994
2 55627  42.9996 271.3302 0018638  26.1345 334.0468 15.94441549  2209
STARLINK-5484           
1 55628U 23021A   23057.25001157 -.01040269  00000+0 -45160-2 0  9993
2 55628  69.9998 126.3987 0008546 240.3551 150.1229 15.86876595  1862
STARLINK-5497           
1 55629U 23021B   23057.25001157 -.01036360  00000+0 -45000-2 0  9994
2 55629  69.9994 126.3987 0008560 242.2962 147.8950 15.86862854  1869
STARLINK-5303           
1 55630U 23021C   23057.25001157 -.01038777  00000+0 -45062-2 0  9998
2 55630  69.9995 126.3983 0008721 247.1220 143.7067 15.86883934  1864
STARLINK-5558           
1 55631U 23021D   23057.25001157 -.01037664  00000+0 -44872-2 0  9991
2 55631  69.9994 126.3961 0008588 244.5072 148.0238 15.86948234  1860
STARLINK-5546           
1 55632U 23021E   23057.25001157 -.01037773  00000+0 -44968-2 0  9999
2 55632  69.9994 126.3976 0008690 247.5956 143.7971 15.86905010  1866
STARLINK-5498           
1 55633U 23021F   23057.25001157 -.01038085  00000+0 -44955-2 0  9993
2 55633  69.9994 126.3971 0008744 248.6703 142.9979 15.86916388  1863
STARLINK-5500           
1 55634U 23021G   23057.25001157 -.01037669  00000+0 -44982-2 0  9991
2 55634  69.9995 126.3979 0008776 249.3026 141.7972 15.86894425  1861
STARLINK-5495           
1 55635U 23021H   23057.25001157 -.01038280  00000+0 -44765-2 0  9991
2 55635  69.9993 126.3948 0009341 231.1240 162.5334 15.86991800  1860
STARLINK-5218           
1 55636U 23021J   23057.25001157 -.01039213  00000+0 -44964-2 0  9990
2 55636  69.9994 126.3965 0008676 245.8673 146.3800 15.86938490  1867
STARLINK-5062           
1 55637U 23021K   23057.25001157 -.01034053  00000+0 -44580-2 0  9992
2 55637  69.9994 126.3944 0008636 245.8694 148.0652 15.87000247  1870
STARLINK-5507           
1 55638U 23021L   23057.25001157 -.01038613  00000+0 -44958-2 0  9998
2 55638  69.9993 126.3968 0008704 243.6145 148.3405 15.86927485  1868
STARLINK-5508           
1 55639U 23021M   23057.25001157 -.01030570  00000+0 -44305-2 0  9999
2 55639  69.9993 126.3927 0008510 241.4029 153.9382 15.87051982  1874
STARLINK-5069           
1 55640U 23021N   23057.25001157 -.01030095  00000+0 -44185-2 0  9999
2 55640  69.9994 126.3914 0008597 244.5274 151.9567 15.87094321  1871
STARLINK-5065           
1 55641U 23021P   23057.25001157 -.01036445  00000+0 -44597-2 0  9992
2 55641  69.9995 126.3930 0008607 245.2816 149.7782 15.87045399  1878
STARLINK-5478           
1 55642U 23021Q   23057.25001157 -.01037521  00000+0 -44833-2 0  9992
2 55642  69.9995 126.3958 0008743 248.8971 143.9138 15.86959042  1869
STARLINK-5483           
1 55643U 23021R   23057.25001157 -.01034520  00000+0 -44434-2 0  9996
2 55643  69.9993 126.3920 0008655 244.8928 151.0190 15.87076236  1872
STARLINK-5502           
1 55644U 23021S   23057.25001157 -.01034667  00000+0 -44565-2 0  9994
2 55644  69.9994 126.3937 0008556 243.3275 151.1713 15.87022329  1877
STARLINK-5102           
1 55645U 23021T   23057.25001157 -.01032143  00000+0 -44156-2 0  9998
2 55645  69.9993 126.3895 0008747 249.5034 148.4157 15.87148815  1873
STARLINK-5104           
1 55646U 23021U   23057.25001157 -.01036408  00000+0 -44718-2 0  9991
2 55646  69.9993 126.3949 0008975 254.5665 138.7719 15.86981167  1873
STARLINK-5510           
1 55647U 23021V   23057.25001157 -.01031031  00000+0 -44154-2 0  9993
2 55647  69.9993 126.3902 0008652 246.3400 150.9804 15.87127674  1878
STARLINK-5501           
1 55648U 23021W   23057.25001157 -.01033612  00000+0 -44491-2 0  9995
2 55648  69.9993 126.3935 0008563 242.7275 152.0468 15.87032692  1870
STARLINK-5469           
1 55649U 23021X   23057.25001157 -.01030437  00000+0 -44174-2 0  9996
2 55649  69.9994 126.3908 0008642 246.6692 150.0846 15.87105784  1877
STARLINK-5494           
1 55650U 23021Y   23057.25001157 -.01031163  00000+0 -44300-2 0  9996
2 55650  69.9994 126.3924 0008676 248.0417 147.5771 15.87063389  1877
STARLINK-5506           
1 55651U 23021Z   23057.25001157 -.01037687  00000+0 -44714-2 0  9993
2 55651  69.9995 126.3939 0008757 249.2624 144.8861 15.87016024  1872
STARLINK-5487           
1 55652U 23021AA  23057.25001157 -.01031017  00000+0 -44247-2 0  9996
2 55652  69.9994 126.3917 0008680 248.2579 147.9442 15.87084248  1873
STARLINK-5067           
1 55653U 23021AB  23057.25001157 -.01030554  00000+0 -44113-2 0  9994
2 55653  69.9993 126.3898 0008583 244.2391 153.3792 15.87137578  1875
STARLINK-5070           
1 55654U 23021AC  23057.25001157 -.01037929  00000+0 -44819-2 0  9991
2 55654  69.9993 126.3953 0008859 251.0813 141.9724 15.86971486  1869
STARLINK-5267           
1 55655U 23021AD  23057.25001157 -.01030650  00000+0 -43950-2 0  9991
2 55655  69.9994 126.3874 0008645 247.0525 152.5390 15.87212878  1873
STARLINK-5326           
1 55656U 23021AE  23057.25001157 -.01030313  00000+0 -44050-2 0  9990
2 55656  69.9994 126.3892 0008688 247.7061 150.4824 15.87158675  1876
STARLINK-5328           
1 55657U 23021AF  23057.25001157 -.01030399  00000+0 -43987-2 0  9993
2 55657  69.9993 126.3881 0008624 245.7831 153.2537 15.87190906  1872
STARLINK-5307           
1 55658U 23021AG  23057.25001157 -.01030447  00000+0 -44147-2 0  9997
2 55658  69.9994 126.3905 0008708 248.1270 148.9026 15.87116776  1875
STARLINK-5477           
1 55659U 23021AH  23057.25001157 -.01029888  00000+0 -43938-2 0  9992
2 55659  69.9993 126.3877 0008632 245.7035 153.5934 15.87202019  1877
STARLINK-5467           
1 55660U 23021AJ  23057.25001157 -.01029683  00000+0 -44005-2 0  9993
2 55660  69.9993 126.3888 0008538 242.1971 156.2739 15.87169005  1876
STARLINK-5475           
1 55661U 23021AK  23057.25001157 -.01029225  00000+0 -43840-2 0  9992
2 55661  69.9993 126.3867 0008589 246.0766 154.0715 15.87233522  1871
STARLINK-5479           
1 55662U 23021AL  23057.25001157 -.01031010  00000+0 -44035-2 0  9995
2 55662  69.9993 126.3885 0008697 248.1726 150.5827 15.87180579  1879
STARLINK-5473           
1 55663U 23021AM  23057.25001157 -.01030885  00000+0 -43800-2 0  9994
2 55663  69.9993 126.3850 0008622 246.3449 155.2369 15.87287414  1871
STARLINK-5480           
1 55664U 23021AN  23057.25001157 -.01031487  00000+0 -43959-2 0  9999
2 55664  69.9993 126.3871 0008779 249.3371 150.5446 15.87223860  1874
STARLINK-5474           
1 55665U 23021AP  23057.25001157 -.01030979  00000+0 -43869-2 0  9995
2 55665  69.9993 126.3860 0008676 247.5065 153.1969 15.87256503  1878
STARLINK-5457           
1 55666U 23021AQ  23057.25001157 -.01027954  00000+0 -43723-2 0  9994
2 55666  69.9994 126.3858 0008372 233.7225 167.2787 15.87264575  1877
STARLINK-5456           
1 55667U 23021AR  23057.25001157 -.01030460  00000+0 -43749-2 0  9999
2 55667  69.9993 126.3846 0008766 249.3572 152.4906 15.87298215  1876
STARLINK-5455           
1 55668U 23021AS  23057.25001157 -.01029312  00000+0 -43812-2 0  9995
2 55668  69.9995 126.3864 0008758 249.1124 151.3146 15.87244336  1870
STARLINK-5459           
1 55669U 23021AT  23057.25001157 -.01030037  00000+0 -43779-2 0  9994
2 55669  69.9993 126.3852 0008707 248.0733 153.2120 15.87276554  1874
STARLINK-5423           
1 55670U 23021AU  23057.25001157 -.01029623  00000+0 -43697-2 0  9994
2 55670  69.9992 126.3845 0008560 244.0156 158.1046 15.87308712  1872
STARLINK-5460           
1 55671U 23021AV  23057.25001157 -.01029784  00000+0 -43564-2 0  9996
2 55671  69.9993 126.3822 0008570 244.9398 158.8523 15.87373341  1874
STARLINK-5461           
1 55672U 23021AW  23057.25001157 -.01029523  00000+0 -43573-2 0  9998
2 55672  69.9994 126.3827 0008636 245.3055 158.2210 15.87361948  1876
STARLINK-5463           
1 55673U 23021AX  23057.25001157 -.01030427  00000+0 -43683-2 0  9996
2 55673  69.9993 126.3835 0008653 246.7518 155.9332 15.87330536  1871
STARLINK-5462           
1 55674U 23021AY  23057.25001157 -.01030521  00000+0 -43642-2 0  9997
2 55674  69.9993 126.3831 0008628 244.9218 158.3228 15.87352061  1875
STARLINK-5232           
1 55675U 23021AZ  23057.25001157 -.01029909  00000+0 -43688-2 0  9996
2 55675  69.9993 126.3838 0008563 243.7312 158.6874 15.87319026  1877
STARLINK-5300           
1 55676U 23021BA  23057.25001157 -.01028719  00000+0 -43489-2 0  9994
2 55676  69.9993 126.3821 0008623 245.1003 158.9636 15.87383503  1870
STARLINK-5324           
1 55677U 23021BB  23057.25001157 -.01029872  00000+0 -43522-2 0  9994
2 55677  69.9992 126.3815 0008588 244.6252 159.7436 15.87394229  1877
STARLINK-5314           
1 55678U 23021BC  23057.25001157 -.01029813  00000+0 -43628-2 0  9997
2 55678  69.9994 126.3833 0008714 249.1759 153.7809 15.87341061  1877
FALCON 9 DEB            
1 55679U 23021BD  23057.12690298  .01692786  40878-5  97889-3 0  9999
2 55679  69.9805 126.3607 0050568 147.2425 213.1948 16.15441388  1667
